{
  "norad_id": 62793,
  "name": "QIANFAN-63",
  "history": [
    {
      "epoch": "2026-04-11T21:34:11.077248Z",
      "apogee_km": 1080.8437544313474,
      "perigee_km": 1056.257770115426,
      "latitude_deg": -3.653297572026426e-05,
      "longitude_deg": -73.05617240049541,
      "height_km": 1059.3674583946204,
      "semi_major_axis_km": 7446.687762273386,
      "eccentricity": 0.0016508,
      "inclination_deg": 88.9687,
      "raan_deg": 90.6016,
      "arg_perigee_deg": 9.3542,
      "mean_anomaly_deg": 350.7913,
      "mean_motion_rev_day": 13.51008388
    },
    {
      "epoch": "2026-04-13T05:33:53.331264Z",
      "apogee_km": 1080.7391751978948,
      "perigee_km": 1056.3619965842263,
      "latitude_deg": -5.839026498466001e-05,
      "longitude_deg": 165.56507742002665,
      "height_km": 1059.368050614939,
      "semi_major_axis_km": 7446.687585891061,
      "eccentricity": 0.00163678,
      "inclination_deg": 88.9689,
      "raan_deg": 90.4629,
      "arg_perigee_deg": 5.5848,
      "mean_anomaly_deg": 354.5482,
      "mean_motion_rev_day": 13.51008436
    },
    {
      "epoch": "2026-04-14T20:40:11.630208Z",
      "apogee_km": 1080.6153668233082,
      "perigee_km": 1056.4851214773626,
      "latitude_deg": -6.701149184417436e-05,
      "longitude_deg": -62.78665527643212,
      "height_km": 1059.4372117300186,
      "semi_major_axis_km": 7446.687244150335,
      "eccentricity": 0.0016202,
      "inclination_deg": 88.969,
      "raan_deg": 90.2934,
      "arg_perigee_deg": 0.9696,
      "mean_anomaly_deg": 359.1483,
      "mean_motion_rev_day": 13.51008529
    },
    {
      "epoch": "2026-04-15T19:46:38.808192Z",
      "apogee_km": 1080.5385886532058,
      "perigee_km": 1056.5617453129526,
      "latitude_deg": -2.256826690678987e-05,
      "longitude_deg": -50.44908755593831,
      "height_km": 1059.519012701321,
      "semi_major_axis_km": 7446.687166983079,
      "eccentricity": 0.0016099,
      "inclination_deg": 88.9692,
      "raan_deg": 90.1932,
      "arg_perigee_deg": 358.2248,
      "mean_anomaly_deg": 1.8843,
      "mean_motion_rev_day": 13.5100855
    },
    {
      "epoch": "2026-04-16T18:53:05.979264Z",
      "apogee_km": 1080.466072388329,
      "perigee_km": 1056.633695684659,
      "latitude_deg": 5.096798120589658e-05,
      "longitude_deg": -38.11139045540383,
      "height_km": 1059.6241119181757,
      "semi_major_axis_km": 7446.686884036494,
      "eccentricity": 0.0016002,
      "inclination_deg": 88.9693,
      "raan_deg": 90.0931,
      "arg_perigee_deg": 355.433,
      "mean_anomaly_deg": 4.6673,
      "mean_motion_rev_day": 13.51008627
    },
    {
      "epoch": "2026-04-17T23:19:30.196992Z",
      "apogee_km": 1080.3698481871343,
      "perigee_km": 1056.729596518353,
      "latitude_deg": 7.263304774552803e-06,
      "longitude_deg": -106.00348869102815,
      "height_km": 1059.798028865628,
      "semi_major_axis_km": 7446.686722352743,
      "eccentricity": 0.0015873,
      "inclination_deg": 88.9694,
      "raan_deg": 89.9699,
      "arg_perigee_deg": 352.0129,
      "mean_anomaly_deg": 8.0767,
      "mean_motion_rev_day": 13.51008671
    },
    {
      "epoch": "2026-04-18T18:52:39.343008Z",
      "apogee_km": 1080.304081796401,
      "perigee_km": 1056.794892556386,
      "latitude_deg": 1.5048775753951806e-05,
      "longitude_deg": -40.179291233339725,
      "height_km": 1059.9406023307524,
      "semi_major_axis_km": 7446.686487176394,
      "eccentricity": 0.0015785,
      "inclination_deg": 88.9695,
      "raan_deg": 89.8852,
      "arg_perigee_deg": 349.6515,
      "mean_anomaly_deg": 10.4309,
      "mean_motion_rev_day": 13.51008735
    },
    {
      "epoch": "2026-04-19T19:45:45.539136Z",
      "apogee_km": 1080.2198716724797,
      "perigee_km": 1056.8789777428756,
      "latitude_deg": -1.798168334159578e-05,
      "longitude_deg": -54.58500293424336,
      "height_km": 1060.149801566942,
      "semi_major_axis_km": 7446.686424707677,
      "eccentricity": 0.0015672,
      "inclination_deg": 88.9696,
      "raan_deg": 89.7773,
      "arg_perigee_deg": 346.6474,
      "mean_anomaly_deg": 13.426,
      "mean_motion_rev_day": 13.51008752
    },
    {
      "epoch": "2026-04-20T13:32:15.674784Z",
      "apogee_km": 1080.1677751700108,
      "perigee_km": 1056.9309860542216,
      "latitude_deg": -4.98601027171396e-05,
      "longitude_deg": 37.98243496773896,
      "height_km": 1060.3125862681834,
      "semi_major_axis_km": 7446.6863806121155,
      "eccentricity": 0.00156021,
      "inclination_deg": 88.9697,
      "raan_deg": 89.7003,
      "arg_perigee_deg": 344.4419,
      "mean_anomaly_deg": 15.625,
      "mean_motion_rev_day": 13.51008764
    },
    {
      "epoch": "2026-04-21T21:31:57.914976Z",
      "apogee_km": 1080.07332776788,
      "perigee_km": 1057.024345765918,
      "latitude_deg": -4.9685932734147e-05,
      "longitude_deg": -83.39615984182328,
      "height_km": 1060.643822522598,
      "semi_major_axis_km": 7446.685836766898,
      "eccentricity": 0.0015476,
      "inclination_deg": 88.9698,
      "raan_deg": 89.5617,
      "arg_perigee_deg": 340.4746,
      "mean_anomaly_deg": 19.581,
      "mean_motion_rev_day": 13.51008912
    },
    {
      "epoch": "2026-04-22T20:38:25.091232Z",
      "apogee_km": 1079.9933648481065,
      "perigee_km": 1057.1037427927731,
      "latitude_deg": 3.2877760554927384e-05,
      "longitude_deg": -71.05838843854836,
      "height_km": 1060.9233328716425,
      "semi_major_axis_km": 7446.685553820439,
      "eccentricity": 0.0015369,
      "inclination_deg": 88.9699,
      "raan_deg": 89.4617,
      "arg_perigee_deg": 337.616,
      "mean_anomaly_deg": 22.4319,
      "mean_motion_rev_day": 13.51008989
    },
    {
      "epoch": "2026-04-23T12:38:16.209600Z",
      "apogee_km": 1079.9378712250927,
      "perigee_km": 1057.1587587140139,
      "latitude_deg": -2.1682799648772176e-05,
      "longitude_deg": 48.25232077979844,
      "height_km": 1061.1312087900546,
      "semi_major_axis_km": 7446.685314969553,
      "eccentricity": 0.00152948,
      "inclination_deg": 88.9699,
      "raan_deg": 89.3924,
      "arg_perigee_deg": 335.6291,
      "mean_anomaly_deg": 24.4135,
      "mean_motion_rev_day": 13.51009054
    },
    {
      "epoch": "2026-04-24T20:37:58.441152Z",
      "apogee_km": 1079.8390246745885,
      "perigee_km": 1057.256208905711,
      "latitude_deg": 1.8556849011895875e-05,
      "longitude_deg": -73.12623551790105,
      "height_km": 1061.5745408759667,
      "semi_major_axis_km": 7446.684616790149,
      "eccentricity": 0.0015163,
      "inclination_deg": 88.97,
      "raan_deg": 89.2538,
      "arg_perigee_deg": 331.5861,
      "mean_anomaly_deg": 28.4462,
      "mean_motion_rev_day": 13.51009244
    },
    {
      "epoch": "2026-04-25T19:44:25.600992Z",
      "apogee_km": 1079.764064686604,
      "perigee_km": 1057.3301840934673,
      "latitude_deg": -6.0345548253762534e-06,
      "longitude_deg": -60.788395259169945,
      "height_km": 1061.924788523553,
      "semi_major_axis_km": 7446.684124390035,
      "eccentricity": 0.0015063,
      "inclination_deg": 88.9702,
      "raan_deg": 89.1538,
      "arg_perigee_deg": 328.6638,
      "mean_anomaly_deg": 31.3614,
      "mean_motion_rev_day": 13.51009378
    }
  ]
}